ORBCOMM FM06            
1 25118U 97084G   26200.15748259  .00000384  00000+0  14230-3 0  9993
2 25118  45.0132 258.7986 0001778 245.5173 141.1063 14.47631538499021
ORBCOMM FM04            
1 25159U 98007C   26200.09554661  .00000324  00000+0  15640-3 0  9999
2 25159 107.9632 235.0943 0041997 270.3106  89.3222 14.35788337481173
ORBCOMM FM19            
1 25415U 98046C   26200.16361691  .00000396  00000+0  17103-3 0  9999
2 25415  44.9937  91.5581 0003244  88.9175  72.0495 14.39545598461387
ORBCOMM FM20            
1 25416U 98046D   26199.13528686  .00000282  00000+0  13871-3 0  9995
2 25416  44.9939 104.7114 0001161  17.6041 342.4847 14.38102815461246
ORBCOMM FM27            
1 25481U 98053G   26200.25825416  .00000323  00000+0  14912-3 0  9995
2 25481  45.0035 183.0191 0002245 305.7723  54.2917 14.39188925454856
ORBCOMM FM32            
1 25982U 99065C   26200.19766461  .00000230  00000+0  12390-3 0  9997
2 25982  45.0160  21.7162 0006061 210.9525 149.0967 14.37171173391699
ORBCOMM FM109           
1 40086U 14040A   26200.01314763  .00000036  00000+0  43828-4 0  9999
2 40086  47.0031 301.0135 0001380 335.9633  24.1188 14.58873411638993
ORBCOMM FM110           
1 41182U 15081D   26200.08630854  .00000172  00000+0  72689-4 0  9990
2 41182  47.0002 210.6096 0003723 238.0149 122.0375 14.58921068562284
ORBCOMM FM118           
1 41183U 15081E   26200.32623061  .00000042  00000+0  45143-4 0  9991
2 41183  47.0023 209.8146 0003122 204.3018 155.7722 14.58905787562423
ORBCOMM FM112           
1 41184U 15081F   26200.19317126  .00000244  00000+0  87812-4 0  9992
2 41184  46.9986 118.8931 0003457 345.9313  14.1476 14.58941666563625
ORBCOMM FM113           
1 41185U 15081G   26200.17092511  .00000118  00000+0  61159-4 0  9995
2 41185  47.0004 119.3917 0002000 337.1386  22.9410 14.58884305563604
ORBCOMM FM108           
1 41187U 15081J   26200.26981315  .00000220  00000+0  82723-4 0  9990
2 41187  47.0058  30.5058 0002412 337.9175  22.1606 14.58913676564767
ORBCOMM FM117           
1 41188U 15081K   26199.96164321  .00000210  00000+0  80536-4 0  9994
2 41188  47.0021  30.5891 0002807 344.8105  15.2696 14.58900501564766
ORBCOMM FM116           
1 41189U 15081L   26200.21569594  .00000175  00000+0  73260-4 0  9993
2 41189  47.0017 119.1769 0001688 240.8067 119.2650 14.58909207563618
